$$SOE
2460154.500000000, A.D. 2023-Jul-29 00:00:00.0000, -1.279653831778402E+08, -2.944617011660773E+08, 1.525409988060376E+07,
2460161.500000000, A.D. 2023-Aug-05 00:00:00.0000, -1.158470183255181E+08, -2.978942481931732E+08, 1.248215317760798E+07,
2460168.500000000, A.D. 2023-Aug-12 00:00:00.0000, -1.035569355721626E+08, -3.008849893742753E+08, 9.691705589442745E+06,
2460175.500000000, A.D. 2023-Aug-19 00:00:00.0000, -9.111116050393496E+07, -3.034230896647289E+08, 6.886689485262066E+06,
2460182.500000000, A.D. 2023-Aug-26 00:00:00.0000, -7.852649857664894E+07, -3.054983435834877E+08, 4.071179646669775E+06,
2460189.500000000, A.D. 2023-Sep-02 00:00:00.0000, -6.582051615678736E+07, -3.071012417789285E+08, 1.249386335159615E+06,
2460196.500000000, A.D. 2023-Sep-09 00:00:00.0000, -5.301151554368234E+07, -3.082230382163420E+08, -1.574352975285098E+06,
2460203.500000000, A.D. 2023-Sep-16 00:00:00.0000, -4.011850352516433E+07, -3.088558174346458E+08, -4.395583255063385E+06,
2460210.500000000, A.D. 2023-Sep-23 00:00:00.0000, -2.716115283232239E+07, -3.089925609133095E+08, -7.209742998846486E+06,
2460217.500000000, A.D. 2023-Sep-30 00:00:00.0000, -1.415975668739569E+07, -3.086272106314044E+08, -1.001217660087074E+07,
2460224.500000000, A.D. 2023-Oct-07 00:00:00.0000, -1.135178736055497E+06, -3.077547295860791E+08, -1.279814783487870E+07,
2460231.500000000, A.D. 2023-Oct-14 00:00:00.0000, 1.189120264662052E+07, -3.063711617724088E+08, -1.556285476383673E+07,
2460238.500000000, A.D. 2023-Oct-21 00:00:00.0000, 2.489755877384733E+07, -3.044736891932018E+08, -1.830144618035622E+07,
2460245.500000000, A.D. 2023-Oct-28 00:00:00.0000, 3.786168212150834E+07, -3.020606828045639E+08, -2.100903917408924E+07,
2460252.500000000, A.D. 2023-Nov-04 00:00:00.0000, 5.076106325176028E+07, -2.991317473407453E+08, -2.368073766167693E+07,
2460259.500000000, A.D. 2023-Nov-11 00:00:00.0000, 6.357297288988508E+07, -2.956877598178062E+08, -2.631165180783798E+07,
2460266.500000000, A.D. 2023-Nov-18 00:00:00.0000, 7.627454878407873E+07, -2.917309010262070E+08, -2.889691820316581E+07,
2460273.500000000, A.D. 2023-Nov-25 00:00:00.0000, 8.884288671868643E+07, -2.872646792992817E+08, -3.143172062209274E+07,
2460280.500000000, A.D. 2023-Dec-02 00:00:00.0000, 1.012551349040544E+08, -2.822939459604213E+08, -3.391131116400300E+07,
2460287.500000000, A.D. 2023-Dec-09 00:00:00.0000, 1.134885909262754E+08, -2.768249020039639E+08, -3.633103157336496E+07,
2460294.500000000, A.D. 2023-Dec-16 00:00:00.0000, 1.255208005715726E+08, -2.708650956179502E+08, -3.868633453671573E+07,
2460301.500000000, A.D. 2023-Dec-23 00:00:00.0000, 1.373296578363451E+08, -2.644234096170417E+08, -4.097280469737120E+07,
2460308.500000000, A.D. 2023-Dec-30 00:00:00.0000, 1.488935037010341E+08, -2.575100376328808E+08, -4.318617894111635E+07,
2460315.500000000, A.D. 2024-Jan-06 00:00:00.0000, 1.601912207932051E+08, -2.501364514645988E+08, -4.532236574660237E+07,
2460322.500000000, A.D. 2024-Jan-13 00:00:00.0000, 1.712023260165332E+08, -2.423153615902211E+08, -4.737746380959292E+07,
2460329.500000000, A.D. 2024-Jan-20 00:00:00.0000, 1.819070613037626E+08, -2.340606681063140E+08, -4.934777958493194E+07,
2460336.500000000, A.D. 2024-Jan-27 00:00:00.0000, 1.922864794495948E+08, -2.253874019463671E+08, -5.122984330827054E+07,
2460343.500000000, A.D. 2024-Feb-03 00:00:00.0000, 2.023225236518242E+08, -2.163116579660157E+08, -5.302042335873763E+07,
2460350.500000000, A.D. 2024-Feb-10 00:00:00.0000, 2.119981001887371E+08, -2.068505209492283E+08, -5.471653886028127E+07,
2460357.500000000, A.D. 2024-Feb-17 00:00:00.0000, 2.212971436344272E+08, -1.970219853982657E+08, -5.631547041117960E+07,
2460364.500000000, A.D. 2024-Feb-24 00:00:00.0000, 2.302046740371085E+08, -1.868448700518593E+08, -5.781476885254425E+07,
2460371.500000000, A.D. 2024-Mar-02 00:00:00.0000, 2.387068456140175E+08, -1.763387281890402E+08, -5.921226202213640E+07,
2460378.500000000, A.D. 2024-Mar-09 00:00:00.0000, 2.467909867679968E+08, -1.655237548456776E+08, -6.050605948447970E+07,
2460385.500000000, A.D. 2024-Mar-16 00:00:00.0000, 2.544456316385451E+08, -1.544206918277556E+08, -6.169455526379049E+07,
2460392.500000000, A.D. 2024-Mar-23 00:00:00.0000, 2.616605430522776E+08, -1.430507304975601E+08, -6.277642852005219E+07,
2460399.500000000, A.D. 2024-Mar-30 00:00:00.0000, 2.684267247320582E+08, -1.314354134265279E+08, -6.375064203371526E+07,
2460406.500000000, A.D. 2024-Apr-06 00:00:00.0000, 2.747364232359165E+08, -1.195965392951333E+08, -6.461643888648626E+07,
2460413.500000000, A.D. 2024-Apr-13 00:00:00.0000, 2.805831235069822E+08, -1.075560711374799E+08, -6.537333770244271E+07,
2460420.500000000, A.D. 2024-Apr-20 00:00:00.0000, 2.859615375283017E+08, -9.533604610246500E+07, -6.602112627151283E+07,
2460427.500000000, A.D. 2024-Apr-27 00:00:00.0000, 2.908675851138461E+08, -8.295848805223450E+07, -6.655985361188807E+07,
2460434.500000000, A.D. 2024-May-04 00:00:00.0000, 2.952983675513756E+08, -7.044532436888388E+07, -6.698982070400041E+07,
2460441.500000000, A.D. 2024-May-11 00:00:00.0000, 2.992521350158320E+08, -5.781830764194869E+07, -6.731157010192272E+07,
2460448.500000000, A.D. 2024-May-18 00:00:00.0000, 3.027282485455979E+08, -4.509894268024567E+07, -6.752587460409223E+07,
2460455.500000000, A.D. 2024-May-25 00:00:00.0000, 3.057271373321831E+08, -3.230841920983300E+07, -6.763372515886094E+07,
2460462.500000000, A.D. 2024-Jun-01 00:00:00.0000, 3.082502521131246E+08, -1.946755056268370E+07, -6.763631818288787E+07,
2460469.500000000, A.D. 2024-Jun-08 00:00:00.0000, 3.103000156341312E+08, -6.596718526465166E+06, -6.753504247775748E+07,
2460476.500000000, A.D. 2024-Jun-15 00:00:00.0000, 3.118797712749344E+08, 6.284176137810696E+06, -6.733146588776967E+07,
2460483.500000000, A.D. 2024-Jun-22 00:00:00.0000, 3.129937295047111E+08, 1.915575872381545E+07, -6.702732165314594E+07,
2460490.500000000, A.D. 2024-Jun-29 00:00:00.0000, 3.136469106899076E+08, 3.199921943893374E+07, -6.662449454873700E+07,
2460497.500000000, A.D. 2024-Jul-06 00:00:00.0000, 3.138450874890208E+08, 4.479634378577541E+07, -6.612500737390913E+07,
2460504.500000000, A.D. 2024-Jul-13 00:00:00.0000, 3.135947293137372E+08, 5.752953751290824E+07, -6.553100784626427E+07,
2460511.500000000, A.D. 2024-Jul-20 00:00:00.0000, 3.129029473526129E+08, 7.018184755352663E+07, -6.484475571597888E+07,
2460518.500000000, A.D. 2024-Jul-27 00:00:00.0000, 3.117774399311401E+08, 8.273697829563563E+07, -6.406861019964814E+07,
2460525.500000000, A.D. 2024-Aug-03 00:00:00.0000, 3.102264388550460E+08, 9.517930313668360E+07, -6.320501785683495E+07,
2460532.500000000, A.D. 2024-Aug-10 00:00:00.0000, 3.082586572214253E+08, 1.074938716635764E+08, -6.225650097971261E+07,
2460539.500000000, A.D. 2024-Aug-17 00:00:00.0000, 3.058832390111535E+08, 1.196664128354783E+08, -6.122564654131520E+07,
2460546.500000000, A.D. 2024-Aug-24 00:00:00.0000, 3.031097107069470E+08, 1.316833345066578E+08, -6.011509573885176E+07,
2460553.500000000, A.D. 2024-Aug-31 00:00:00.0000, 2.999479352236046E+08, 1.435317195854394E+08, -5.892753417010974E+07,
2460560.500000000, A.D. 2024-Sep-07 00:00:00.0000, 2.964080686450452E+08, 1.551993193044970E+08, -5.766568267984585E+07,
2460567.500000000, A.D. 2024-Sep-14 00:00:00.0000, 2.925005199392218E+08, 1.666745449324629E+08, -5.633228880687578E+07,
2460574.500000000, A.D. 2024-Sep-21 00:00:00.0000, 2.882359116680424E+08, 1.779464586643822E+08, -5.493011860796328E+07,
2460581.500000000, A.D. 2024-Sep-28 00:00:00.0000, 2.836250412320940E+08, 1.890047607786692E+08, -5.346194907142719E+07,
2460588.500000000, A.D. 2024-Oct-05 00:00:00.0000, 2.786788463235740E+08, 1.998397733490473E+08, -5.193056144623592E+07,
2460595.500000000, A.D. 2024-Oct-12 00:00:00.0000, 2.734083741967621E+08, 2.104424237555139E+08, -5.033873519158400E+07,
2460602.500000000, A.D. 2024-Oct-19 00:00:00.0000, 2.678247529560603E+08, 2.208042279711394E+08, -4.868924238677462E+07,
2460609.500000000, A.D. 2024-Oct-26 00:00:00.0000, 2.619391647666214E+08, 2.309172730501197E+08, -4.698484264004695E+07,
2460616.500000000, A.D. 2024-Nov-02 00:00:00.0000, 2.557628211685303E+08, 2.407741988736166E+08, -4.522827850581503E+07,
2460623.500000000, A.D. 2024-Nov-09 00:00:00.0000, 2.493069405026331E+08, 2.503681793586546E+08, -4.342227138951273E+07,
2460630.500000000, A.D. 2024-Nov-16 00:00:00.0000, 2.425827273761064E+08, 2.596929032967030E+08, -4.156951791379353E+07,
2460637.500000000, A.D. 2024-Nov-23 00:00:00.0000, 2.356013541110798E+08, 2.687425549223123E+08, -3.967268672627912E+07,
2460644.500000000, A.D. 2024-Nov-30 00:00:00.0000, 2.283739442792084E+08, 2.775117943048605E+08, -3.773441574437135E+07,
2460651.500000000, A.D. 2024-Dec-07 00:00:00.0000, 2.209115586383728E+08, 2.859957381046494E+08, -3.575730981541820E+07,
2460658.500000000, A.D. 2024-Dec-14 00:00:00.0000, 2.132251826811795E+08, 2.941899420178875E+08, -3.374393860332187E+07,
2460665.500000000, A.D. 2024-Dec-21 00:00:00.0000, 2.053257133700109E+08, 3.020903837529286E+08, -3.169683456312406E+07,
2460672.500000000, A.D. 2024-Dec-28 00:00:00.0000, 1.972239469296449E+08, 3.096934436487745E+08, -2.961849140143555E+07,
2460679.500000000, A.D. 2025-Jan-04 00:00:00.0000, 1.889305702024133E+08, 3.169958853722200E+08, -2.751136304274613E+07,
2460686.500000000, A.D. 2025-Jan-11 00:00:00.0000, 1.804561536462102E+08, 3.239948383931024E+08, -2.537786277358681E+07,
2460693.500000000, A.D. 2025-Jan-18 00:00:00.0000, 1.718111449570978E+08, 3.306877813520637E+08, -2.322036253104980E+07,
2460700.500000000, A.D. 2025-Jan-25 00:00:00.0000, 1.630058634623367E+08, 3.370725258772989E+08, -2.104119237466325E+07,
2460707.500000000, A.D. 2025-Feb-01 00:00:00.0000, 1.540504953829662E+08, 3.431472008491237E+08, -1.884264014171371E+07,
2460714.500000000, A.D. 2025-Feb-08 00:00:00.0000, 1.449550899431727E+08, 3.489102371561991E+08, -1.662695127183768E+07,
2460721.500000000, A.D. 2025-Feb-15 00:00:00.0000, 1.357295562815589E+08, 3.543603529394494E+08, -1.439632878830381E+07,
$$EOE